NORAD_CAT_ID,OBJECT_NAME,OBJECT_TYPE,EPOCH,MEAN_MOTION,ECCENTRICITY,INCLINATION,RA_OF_ASC_NODE,ARG_OF_PERICENTER,MEAN_ANOMALY,BSTAR,MEAN_MOTION_DOT,MEAN_MOTION_DDOT,TLE_LINE0,TLE_LINE1,TLE_LINE2,SEMIMAJOR_AXIS,PERIOD,APOGEE,PERIGEE,DECAYED
54098.0,STARLINK-5217,PAYLOAD,2023-02-23 23:58:21,15.08851672,0.0001137,53.2155,275.3486,89.6738,270.4384,0.00025453,3.767e-05,0.0,0 STARLINK-5217,1 54098U 22136AZ  23054.99885970  .00003767  00000-0  25453-3 0  9994,2 54098  53.2155 275.3486 0001137  89.6738 270.4384 15.08851672 19930,6917.845,95.437,540.496,538.923,0.0
54098.0,STARLINK-5217,PAYLOAD,2023-02-24 14:16:50,15.08837921,0.0001219,53.2154,272.6717,92.2762,267.837,0.00013581,1.874e-05,0.0,0 STARLINK-5217,1 54098U 22136AZ  23055.59502765  .00001874  00000-0  13581-3 0  9995,2 54098  53.2154 272.6717 0001219  92.2762 267.8370 15.08837921 20022,6917.887,95.438,540.595,538.908,0.0
54098.0,STARLINK-5217,PAYLOAD,2023-02-24 20:38:23,15.08838478,0.0001193,53.2159,271.4826,92.0957,268.0172,0.00013518,1.864e-05,0.0,0 STARLINK-5217,1 54098U 22136AZ  23055.85998882  .00001864  00000-0  13518-3 0  9992,2 54098  53.2159 271.4826 0001193  92.0957 268.0172 15.08838478 19591,6917.885,95.438,540.575,538.925,0.0
54098.0,STARLINK-5217,PAYLOAD,2023-02-25 14:07:37,15.08841933,0.0001195,53.2155,268.2112,83.5314,276.5814,3.9995e-05,3.49e-06,0.0,0 STARLINK-5217,1 54098U 22136AZ  23056.58862735  .00000349  00000-0  39995-4 0  9995,2 54098  53.2155 268.2112 0001195  83.5314 276.5814 15.08841933 19703,6917.874,95.437,540.566,538.913,0.0
54098.0,STARLINK-5217,PAYLOAD,2023-02-25 20:29:09,15.08846246,0.0001219,53.2154,267.0216,85.2027,274.9105,0.00010833,1.437e-05,0.0,0 STARLINK-5217,1 54098U 22136AZ  23056.85358488  .00001437  00000-0  10833-3 0  9998,2 54098  53.2154 267.0216 0001219  85.2027 274.9105 15.08846246 20216,6917.861,95.437,540.57,538.883,0.0
54098.0,STARLINK-5217,PAYLOAD,2023-02-26 13:58:24,15.0884335,0.0001235,53.2154,263.7498,86.5177,273.5957,0.00016653,2.364e-05,0.0,0 STARLINK-5217,1 54098U 22136AZ  23057.58222641  .00002364  00000-0  16653-3 0  9996,2 54098  53.2154 263.7498 0001235  86.5177 273.5957 15.08843350 19850,6917.87,95.437,540.59,538.881,0.0
54098.0,STARLINK-5217,PAYLOAD,2023-02-26 17:09:10,15.08845426,0.0001175,53.2153,263.1551,82.9491,277.1635,0.00016093,2.275e-05,0.0,0 STARLINK-5217,1 54098U 22136AZ  23057.71470488  .00002275  00000-0  16093-3 0  9994,2 54098  53.2153 263.1551 0001175  82.9491 277.1635 15.08845426 19876,6917.864,95.437,540.542,538.916,0.0
54098.0,STARLINK-5217,PAYLOAD,2023-02-26 21:55:19,15.08848692,0.0001213,53.2152,262.2629,84.151,275.9621,0.00019545,2.825e-05,0.0,0 STARLINK-5217,1 54098U 22136AZ  23057.91342265  .00002825  00000-0  19545-3 0  9993,2 54098  53.2152 262.2629 0001213  84.1510 275.9621 15.08848692 20376,6917.854,95.437,540.558,538.88,0.0
54098.0,STARLINK-5217,PAYLOAD,2023-02-27 21:46:06,15.08858431,0.0001296,53.2154,257.8031,88.6146,271.4995,0.00026586,3.948e-05,0.0,0 STARLINK-5217,1 54098U 22136AZ  23058.90701494  .00003948  00000-0  26586-3 0  9996,2 54098  53.2154 257.8031 0001296  88.6146 271.4995 15.08858431 20052,6917.824,95.436,540.586,538.793,0.0
54098.0,STARLINK-5217,PAYLOAD,2023-02-28 05:43:02,15.0884666,0.0001258,53.2169,256.3136,83.0989,277.0146,9.7992e-05,1.272e-05,0.0,0 STARLINK-5217,1 54098U 22136AZ  23059.23821895  .00001272  00000-0  97992-4 0  9999,2 54098  53.2169 256.3136 0001258  83.0989 277.0146 15.08846660 20578,6917.86,95.437,540.595,538.855,0.0
54098.0,STARLINK-5217,PAYLOAD,2023-02-28 13:39:58,15.08827884,0.0001841,53.2168,254.8314,95.5604,264.5598,-0.00023029,-3.95e-05,0.0,0 STARLINK-5217,1 54098U 22136AZ  23059.56943106 -.00003950  00000-0 -23029-3 0  9991,2 54098  53.2168 254.8314 0001841  95.5604 264.5598 15.08827884 20151,6917.917,95.438,541.056,538.509,0.0
54098.0,STARLINK-5217,PAYLOAD,2023-02-28 21:36:54,15.08818592,0.0001318,53.2153,253.343,77.8172,282.2968,-0.00030667,-5.162e-05,0.0,0 STARLINK-5217,1 54098U 22136AZ  23059.90063590 -.00005162  00000-0 -30667-3 0  9992,2 54098  53.2153 253.3430 0001318  77.8172 282.2968 15.08818592 20200,6917.946,95.439,540.723,538.899,0.0
54098.0,STARLINK-5217,PAYLOAD,2023-02-28 23:12:18,15.0882078,0.0001328,53.2152,253.0453,79.4337,280.6804,-0.00021443,-3.697e-05,0.0,0 STARLINK-5217,1 54098U 22136AZ  23059.96687854 -.00003697  00000-0 -21443-3 0  9996,2 54098  53.2152 253.0453 0001328  79.4337 280.6804 15.08820780 20688,6917.939,95.439,540.723,538.885,0.0
54098.0,STARLINK-5217,PAYLOAD,2023-03-01 18:16:56,15.08831761,0.0001284,53.2151,249.4772,70.3671,289.7459,0.00062578,9.683e-05,0.0,0 STARLINK-5217,1 54098U 22136AZ  23060.76176396  .00009683  00000-0  62578-3 0  9993,2 54098  53.2151 249.4772 0001284  70.3671 289.7459 15.08831761 20803,6917.906,95.438,540.659,538.882,0.0
54098.0,STARLINK-5217,PAYLOAD,2023-03-01 21:27:42,15.08838087,0.000129,53.2151,248.8825,69.6486,290.4645,0.00084246,0.00013144,0.0,0 STARLINK-5217,1 54098U 22136AZ  23060.89424453  .00013144  00000-0  84246-3 0  9990,2 54098  53.2151 248.8825 0001290  69.6486 290.4645 15.08838087 20351,6917.886,95.438,540.644,538.859,0.0
54098.0,STARLINK-5217,PAYLOAD,2023-03-02 19:43:05,15.08868851,0.0001285,53.2147,244.7193,68.7161,291.3968,0.00099251,0.00015556,0.0,0 STARLINK-5217,1 54098U 22136AZ  23061.82159472  .00015556  00000-0  99251-3 0  9991,2 54098  53.2147 244.7193 0001285  68.7161 291.3968 15.08868851 20498,6917.792,95.436,540.546,538.768,0.0
54098.0,STARLINK-5217,PAYLOAD,2023-03-03 11:36:56,15.08857515,0.0001497,53.2127,241.7455,77.9162,282.1998,0.00021447,3.129e-05,0.0,0 STARLINK-5217,1 54098U 22136AZ  23062.48398955  .00003129  00000-0  21447-3 0  9990,2 54098  53.2127 241.7455 0001497  77.9162 282.1998 15.08857515 21062,6917.827,95.436,540.727,538.656,0.0
54098.0,STARLINK-5217,PAYLOAD,2023-03-03 17:58:29,15.08856204,0.0001669,53.2147,240.557,77.1821,282.9357,0.00014874,2.081e-05,0.0,0 STARLINK-5217,1 54098U 22136AZ  23062.74894800  .00002081  00000-0  14874-3 0  9991,2 54098  53.2147 240.5570 0001669  77.1821 282.9357 15.08856204 20637,6917.831,95.437,540.85,538.541,0.0
54098.0,STARLINK-5217,PAYLOAD,2023-03-04 05:06:10,15.08852854,0.0001265,53.2138,238.4756,72.3588,287.7542,0.00011837,1.597e-05,0.0,0 STARLINK-5217,1 54098U 22136AZ  23063.21262595  .00001597  00000-0  11837-3 0  9991,2 54098  53.2138 238.4756 0001265  72.3588 287.7542 15.08852854 21174,6917.841,95.437,540.581,538.831,0.0
54098.0,STARLINK-5217,PAYLOAD,2023-03-04 11:27:43,15.08846383,0.0001432,53.2124,237.2843,88.1102,272.0055,1.0023e-05,-1.28e-06,0.0,0 STARLINK-5217,1 54098U 22136AZ  23063.47758825 -.00000128  00000-0  10023-4 0  9992,2 54098  53.2124 237.2843 0001432  88.1102 272.0055 15.08846383 20744,6917.861,95.437,540.717,538.735,0.0
54098.0,STARLINK-5217,PAYLOAD,2023-03-04 17:49:16,15.08844672,0.0001521,53.2129,236.095,87.2872,272.8294,-5.799e-06,-3.8e-06,0.0,0 STARLINK-5217,1 54098U 22136AZ  23063.74254844 -.00000380  00000-0 -57990-5 0  9990,2 54098  53.2129 236.0950 0001521  87.2872 272.8294 15.08844672 21257,6917.866,95.437,540.783,538.679,0.0
54098.0,STARLINK-5217,PAYLOAD,2023-03-05 04:56:58,15.08844245,0.0001217,53.2148,234.0141,85.4166,274.6965,4.3863e-05,4.1e-06,0.0,0 STARLINK-5217,1 54098U 22136AZ  23064.20622957  .00000410  00000-0  43863-4 0  9991,2 54098  53.2148 234.0141 0001217  85.4166 274.6965 15.08844245 20852,6917.867,95.437,540.574,538.891,0.0
54098.0,STARLINK-5217,PAYLOAD,2023-03-05 17:40:03,15.08841345,0.0001323,53.2144,231.6353,85.9776,274.1368,5.665e-05,6.14e-06,0.0,0 STARLINK-5217,1 54098U 22136AZ  23064.73615173  .00000614  00000-0  56650-4 0  9995,2 54098  53.2144 231.6353 0001323  85.9776 274.1368 15.08841345 21408,6917.876,95.437,540.657,538.826,0.0
54098.0,STARLINK-5217,PAYLOAD,2023-03-06 19:06:13,15.08848936,0.0001275,53.2162,226.879,82.9884,277.1253,0.00024245,3.574e-05,0.0,0 STARLINK-5217,1 54098U 22136AZ  23065.79598923  .00003574  00000-0  24245-3 0  9997,2 54098  53.2162 226.8790 0001275  82.9884 277.1253 15.08848936 21568,6917.853,95.437,540.6,538.836,0.0
54098.0,STARLINK-5217,PAYLOAD,2023-03-06 20:41:36,15.08851939,0.0001245,53.2135,226.5804,76.2405,283.8726,0.00024285,3.58e-05,0.0,0 STARLINK-5217,1 54098U 22136AZ  23065.86222768  .00003580  00000-0  24285-3 0  9997,2 54098  53.2135 226.5804 0001245  76.2405 283.8726 15.08851939 21109,6917.844,95.437,540.57,538.848,0.0
54098.0,STARLINK-5217,PAYLOAD,2023-03-07 11:00:05,15.08840305,0.0001415,53.2121,223.9015,93.1862,266.9292,0.00010805,1.432e-05,0.0,0 STARLINK-5217,1 54098U 22136AZ  23066.45839353  .00001432  00000-0  10805-3 0  9994,2 54098  53.2121 223.9015 0001415  93.1862 266.9292 15.08840305 21669,6917.879,95.438,540.723,538.766,0.0
54098.0,STARLINK-5217,PAYLOAD,2023-03-07 20:32:23,15.08854885,0.000134,53.2158,222.119,89.8878,270.2268,0.0003568,5.397e-05,0.0,0 STARLINK-5217,1 54098U 22136AZ  23066.85582734  .00005397  00000-0  35680-3 0  9998,2 54098  53.2158 222.1190 0001340  89.8878 270.2268 15.08854885 21726,6917.835,95.437,540.627,538.773,0.0
54098.0,STARLINK-5217,PAYLOAD,2023-03-08 02:53:56,15.08834814,0.0001816,53.2153,220.9284,87.7507,272.3693,-4.1561e-05,-9.49e-06,0.0,0 STARLINK-5217,1 54098U 22136AZ  23067.12079592 -.00000949  00000-0 -41561-4 0  9998,2 54098  53.2153 220.9284 0001816  87.7507 272.3693 15.08834814 21764,6917.896,95.438,541.018,538.505,0.0
54098.0,STARLINK-5217,PAYLOAD,2023-03-08 20:23:10,15.0884654,0.000121,53.2155,217.6579,96.2158,263.8972,0.00021574,3.148e-05,0.0,0 STARLINK-5217,1 54098U 22136AZ  23067.84943244  .00003148  00000-0  21574-3 0  9994,2 54098  53.2155 217.6579 0001210  96.2158 263.8972 15.08846540 21406,6917.86,95.437,540.562,538.888,0.0
54098.0,STARLINK-5217,PAYLOAD,2023-03-09 02:44:43,15.08844156,0.0001395,53.2149,216.4695,87.1677,272.9475,0.00019198,2.769e-05,0.0,0 STARLINK-5217,1 54098U 22136AZ  23068.11439426  .00002769  00000-0  19198-3 0  9994,2 54098  53.2149 216.4695 0001395  87.1677 272.9475 15.08844156 21448,6917.868,95.437,540.698,538.768,0.0
